CCSDS_OMM_VERS = 2.0
CREATION_DATE  = 
ORIGINATOR     = 

OBJECT_NAME    = ATLAS CENTAUR R/B
OBJECT_ID      = 1972-065B
CENTER_NAME    = EARTH
REF_FRAME      = TEME
TIME_SYSTEM    = UTC
MEAN_ELEMENT_THEORY = SGP/SGP4

EPOCH          = 2025-12-17T14:13:57.418752
MEAN_MOTION    = 14.77422523
ECCENTRICITY   = .00334822
INCLINATION    = 35.0019
RA_OF_ASC_NODE = 66.7676
ARG_OF_PERICENTER = 38.8019
MEAN_ANOMALY   = 321.5078

EPHEMERIS_TYPE = 0
CLASSIFICATION_TYPE = U
NORAD_CAT_ID   = 6155
ELEMENT_SET_NO = 999
REV_AT_EPOCH   = 82911
BSTAR          = .15178645E-3
MEAN_MOTION_DOT = .1083E-4
MEAN_MOTION_DDOT = 0

CCSDS_OMM_VERS = 2.0
CREATION_DATE  = 
ORIGINATOR     = 

OBJECT_NAME    = SL-8 R/B
OBJECT_ID      = 1975-112B
CENTER_NAME    = EARTH
REF_FRAME      = TEME
TIME_SYSTEM    = UTC
MEAN_ELEMENT_THEORY = SGP/SGP4

EPOCH          = 2025-12-17T18:28:01.936704
MEAN_MOTION    = 14.38148285
ECCENTRICITY   = .00166638
INCLINATION    = 74.0589
RA_OF_ASC_NODE = 169.6063
ARG_OF_PERICENTER = 280.4800
MEAN_ANOMALY   = 79.4476

EPHEMERIS_TYPE = 0
CLASSIFICATION_TYPE = U
NORAD_CAT_ID   = 8459
ELEMENT_SET_NO = 999
REV_AT_EPOCH   = 62009
BSTAR          = .93258497E-4
MEAN_MOTION_DOT = .257E-5
MEAN_MOTION_DDOT = 0

CCSDS_OMM_VERS = 2.0
CREATION_DATE  = 
ORIGINATOR     = 

OBJECT_NAME    = SL-3 R/B
OBJECT_ID      = 1977-057B
CENTER_NAME    = EARTH
REF_FRAME      = TEME
TIME_SYSTEM    = UTC
MEAN_ELEMENT_THEORY = SGP/SGP4

EPOCH          = 2025-12-17T21:06:06.579648
MEAN_MOTION    = 15.43066947
ECCENTRICITY   = .00067846
INCLINATION    = 97.5678
RA_OF_ASC_NODE = 155.4074
ARG_OF_PERICENTER = 211.7300
MEAN_ANOMALY   = 148.3539

EPHEMERIS_TYPE = 0
CLASSIFICATION_TYPE = U
NORAD_CAT_ID   = 10114
ELEMENT_SET_NO = 999
REV_AT_EPOCH   = 65570
BSTAR          = .24870592E-3
MEAN_MOTION_DOT = .10904E-3
MEAN_MOTION_DDOT = 0

CCSDS_OMM_VERS = 2.0
CREATION_DATE  = 
ORIGINATOR     = 

OBJECT_NAME    = SEASAT 1
OBJECT_ID      = 1978-064A
CENTER_NAME    = EARTH
REF_FRAME      = TEME
TIME_SYSTEM    = UTC
MEAN_ELEMENT_THEORY = SGP/SGP4

EPOCH          = 2025-12-17T17:34:21.486432
MEAN_MOTION    = 14.46067103
ECCENTRICITY   = .00014908
INCLINATION    = 108.0123
RA_OF_ASC_NODE = 313.5081
ARG_OF_PERICENTER = 251.9043
MEAN_ANOMALY   = 108.1940

EPHEMERIS_TYPE = 0
CLASSIFICATION_TYPE = U
NORAD_CAT_ID   = 10967
ELEMENT_SET_NO = 999
REV_AT_EPOCH   = 49466
BSTAR          = .11460217E-3
MEAN_MOTION_DOT = .272E-5
MEAN_MOTION_DDOT = 0

CCSDS_OMM_VERS = 2.0
CREATION_DATE  = 
ORIGINATOR     = 

OBJECT_NAME    = SL-14 R/B
OBJECT_ID      = 1979-011B
CENTER_NAME    = EARTH
REF_FRAME      = TEME
TIME_SYSTEM    = UTC
MEAN_ELEMENT_THEORY = SGP/SGP4

EPOCH          = 2025-12-17T18:02:23.207136
MEAN_MOTION    = 14.91775521
ECCENTRICITY   = .00154663
INCLINATION    = 82.5234
RA_OF_ASC_NODE = 174.2908
ARG_OF_PERICENTER = 336.3507
MEAN_ANOMALY   = 23.7000

EPHEMERIS_TYPE = 0
CLASSIFICATION_TYPE = U
NORAD_CAT_ID   = 11267
ELEMENT_SET_NO = 999
REV_AT_EPOCH   = 51656
BSTAR          = .5049878E-4
MEAN_MOTION_DOT = .535E-5
MEAN_MOTION_DDOT = 0

CCSDS_OMM_VERS = 2.0
CREATION_DATE  = 
ORIGINATOR     = 

OBJECT_NAME    = SL-8 R/B
OBJECT_ID      = 1979-089B
CENTER_NAME    = EARTH
REF_FRAME      = TEME
TIME_SYSTEM    = UTC
MEAN_ELEMENT_THEORY = SGP/SGP4

EPOCH          = 2025-12-17T18:15:52.406208
MEAN_MOTION    = 14.42287087
ECCENTRICITY   = .00145576
INCLINATION    = 74.0686
RA_OF_ASC_NODE = 242.6860
ARG_OF_PERICENTER = 74.9707
MEAN_ANOMALY   = 285.3059

EPHEMERIS_TYPE = 0
CLASSIFICATION_TYPE = U
NORAD_CAT_ID   = 11574
ELEMENT_SET_NO = 999
REV_AT_EPOCH   = 42429
BSTAR          = .77223274E-4
MEAN_MOTION_DOT = .229E-5
MEAN_MOTION_DDOT = 0

CCSDS_OMM_VERS = 2.0
CREATION_DATE  = 
ORIGINATOR     = 

OBJECT_NAME    = SL-14 R/B
OBJECT_ID      = 1980-005B
CENTER_NAME    = EARTH
REF_FRAME      = TEME
TIME_SYSTEM    = UTC
MEAN_ELEMENT_THEORY = SGP/SGP4

EPOCH          = 2025-12-17T20:17:02.832288
MEAN_MOTION    = 14.90797682
ECCENTRICITY   = .0017339
INCLINATION    = 82.5145
RA_OF_ASC_NODE = 24.8572
ARG_OF_PERICENTER = 77.9464
MEAN_ANOMALY   = 282.3696

EPHEMERIS_TYPE = 0
CLASSIFICATION_TYPE = U
NORAD_CAT_ID   = 11672
ELEMENT_SET_NO = 999
REV_AT_EPOCH   = 46429
BSTAR          = .45934888E-4
MEAN_MOTION_DOT = .478E-5
MEAN_MOTION_DDOT = 0

CCSDS_OMM_VERS = 2.0
CREATION_DATE  = 
ORIGINATOR     = 

OBJECT_NAME    = SL-8 R/B
OBJECT_ID      = 1981-003B
CENTER_NAME    = EARTH
REF_FRAME      = TEME
TIME_SYSTEM    = UTC
MEAN_ELEMENT_THEORY = SGP/SGP4

EPOCH          = 2025-12-17T12:26:06.426816
MEAN_MOTION    = 15.07173542
ECCENTRICITY   = .02790167
INCLINATION    = 82.9305
RA_OF_ASC_NODE = 5.8061
ARG_OF_PERICENTER = 103.7971
MEAN_ANOMALY   = 259.4473

EPHEMERIS_TYPE = 0
CLASSIFICATION_TYPE = U
NORAD_CAT_ID   = 12139
ELEMENT_SET_NO = 999
REV_AT_EPOCH   = 30228
BSTAR          = .32640215E-3
MEAN_MOTION_DOT = .12353E-3
MEAN_MOTION_DDOT = 0

CCSDS_OMM_VERS = 2.0
CREATION_DATE  = 
ORIGINATOR     = 

OBJECT_NAME    = SL-3 R/B
OBJECT_ID      = 1981-046B
CENTER_NAME    = EARTH
REF_FRAME      = TEME
TIME_SYSTEM    = UTC
MEAN_ELEMENT_THEORY = SGP/SGP4

EPOCH          = 2025-12-17T19:53:11.245632
MEAN_MOTION    = 15.39709639
ECCENTRICITY   = .00185007
INCLINATION    = 81.2328
RA_OF_ASC_NODE = 27.8505
ARG_OF_PERICENTER = 306.1043
MEAN_ANOMALY   = 53.8485

EPHEMERIS_TYPE = 0
CLASSIFICATION_TYPE = U
NORAD_CAT_ID   = 12465
ELEMENT_SET_NO = 999
REV_AT_EPOCH   = 42582
BSTAR          = .22306469E-3
MEAN_MOTION_DOT = .8896E-4
MEAN_MOTION_DDOT = 0

CCSDS_OMM_VERS = 2.0
CREATION_DATE  = 
ORIGINATOR     = 

OBJECT_NAME    = SL-3 R/B
OBJECT_ID      = 1981-103B
CENTER_NAME    = EARTH
REF_FRAME      = TEME
TIME_SYSTEM    = UTC
MEAN_ELEMENT_THEORY = SGP/SGP4

EPOCH          = 2025-12-17T20:37:58.475712
MEAN_MOTION    = 15.20291263
ECCENTRICITY   = .00120245
INCLINATION    = 81.1590
RA_OF_ASC_NODE = 309.3566
ARG_OF_PERICENTER = 194.4361
MEAN_ANOMALY   = 165.6528

EPHEMERIS_TYPE = 0
CLASSIFICATION_TYPE = U
NORAD_CAT_ID   = 12904
ELEMENT_SET_NO = 999
REV_AT_EPOCH   = 96079
BSTAR          = .21056175E-3
MEAN_MOTION_DOT = .4605E-4
MEAN_MOTION_DDOT = 0

CCSDS_OMM_VERS = 2.0
CREATION_DATE  = 
ORIGINATOR     = 

OBJECT_NAME    = SL-3 R/B
OBJECT_ID      = 1982-013B
CENTER_NAME    = EARTH
REF_FRAME      = TEME
TIME_SYSTEM    = UTC
MEAN_ELEMENT_THEORY = SGP/SGP4

EPOCH          = 2025-12-17T20:09:53.226432
MEAN_MOTION    = 15.21128923
ECCENTRICITY   = .00241957
INCLINATION    = 81.1753
RA_OF_ASC_NODE = 256.6390
ARG_OF_PERICENTER = 94.4243
MEAN_ANOMALY   = 265.9754

EPHEMERIS_TYPE = 0
CLASSIFICATION_TYPE = U
NORAD_CAT_ID   = 13068
ELEMENT_SET_NO = 999
REV_AT_EPOCH   = 39190
BSTAR          = .16047812E-3
MEAN_MOTION_DOT = .3625E-4
MEAN_MOTION_DDOT = 0

CCSDS_OMM_VERS = 2.0
CREATION_DATE  = 
ORIGINATOR     = 

OBJECT_NAME    = SL-3 R/B
OBJECT_ID      = 1982-039B
CENTER_NAME    = EARTH
REF_FRAME      = TEME
TIME_SYSTEM    = UTC
MEAN_ELEMENT_THEORY = SGP/SGP4

EPOCH          = 2025-12-17T21:01:15.428064
MEAN_MOTION    = 15.09554815
ECCENTRICITY   = .00294885
INCLINATION    = 81.1712
RA_OF_ASC_NODE = 310.1879
ARG_OF_PERICENTER = 234.8555
MEAN_ANOMALY   = 124.9906

EPHEMERIS_TYPE = 0
CLASSIFICATION_TYPE = U
NORAD_CAT_ID   = 13154
ELEMENT_SET_NO = 999
REV_AT_EPOCH   = 36929
BSTAR          = .13506624E-3
MEAN_MOTION_DOT = .2212E-4
MEAN_MOTION_DDOT = 0

