ATLAS CENTAUR R/B       
1 06155U 72065B   25351.59302568  .00001083  00000+0  15179-3 0  9998
2 06155  35.0019  66.7676 0033482  38.8019 321.5078 14.77422523829118
SL-8 R/B                
1 08459U 75112B   25351.76946686  .00000257  00000+0  93258-4 0  9994
2 08459  74.0589 169.6063 0016663 280.4800  79.4476 14.38148285620094
SL-3 R/B                
1 10114U 77057B   25351.87924282  .00010904  00000+0  24871-3 0  9999
2 10114  97.5678 155.4074 0006784 211.7300 148.3539 15.43066947655707
SEASAT 1                
1 10967U 78064A   25351.73219313  .00000272  00000+0  11460-3 0  9998
2 10967 108.0123 313.5081 0001490 251.9043 108.1940 14.46067103494663
SL-14 R/B               
1 11267U 79011B   25351.75165749  .00000535  00000+0  50499-4 0  9998
2 11267  82.5234 174.2908 0015466 336.3507  23.7000 14.91775521516560
SL-8 R/B                
1 11574U 79089B   25351.76102322  .00000229  00000+0  77223-4 0  9997
2 11574  74.0686 242.6860 0014557  74.9707 285.3059 14.42287087424291
SL-14 R/B               
1 11672U 80005B   25351.84517167  .00000478  00000+0  45935-4 0  9993
2 11672  82.5145  24.8572 0017339  77.9464 282.3696 14.90797682464296
SL-8 R/B                
1 12139U 81003B   25351.51812994  .00012353  00000+0  32640-3 0  9994
2 12139  82.9305   5.8061 0279016 103.7971 259.4473 15.07173542302282
SL-3 R/B                
1 12465U 81046B   25351.82860238  .00008896  00000+0  22306-3 0  9996
2 12465  81.2328  27.8505 0018500 306.1043  53.8485 15.39709639425828
SL-3 R/B                
1 12904U 81103B   25351.85970458  .00004605  00000+0  21056-3 0  9992
2 12904  81.1590 309.3566 0012024 194.4361 165.6528 15.20291263960796
SL-3 R/B                
1 13068U 82013B   25351.84019938  .00003625  00000+0  16048-3 0  9997
2 13068  81.1753 256.6390 0024195  94.4243 265.9754 15.21128923391907
SL-3 R/B                
1 13154U 82039B   25351.87587301  .00002212  00000+0  13507-3 0  9996
2 13154  81.1712 310.1879 0029488 234.8555 124.9906 15.09554815369291
